     2.100          NAVIGATION                              RINEX VERSION / TYPE
fic2rin                                 03/18/2010 00:08:17 PGM / RUN BY / DATE
                                                            END OF HEADER
32 10  3 17  3 59 44.0  .727218575776D-04 -.864019966684D-11  .000000000000D+00
     .800000000000D+01  .550000000000D+01  .493199115151D-08 -.808105250130D+00
     .286847352982D-06  .127186981263D-01  .253692269325D-05  .515377593803D+04
     .273584000000D+06 -.169500708580D-06  .175526366518D+01 -.391155481339D-07
     .959636237295D+00  .332937500000D+03 -.100582141394D+01 -.868571893791D-08
     .191436545529D-09  .100000000000D+01  .157500000000D+04  .000000000000D+00
     .240000000000D+01  .630000000000D+02 -.325962901115D-08  .800000000000D+01
     .268986000000D+06  .400000000000D+01
 7 10  3 17  3 59 44.0  .157067552209D-05 -.454747350886D-12  .000000000000D+00
     .400000000000D+01  .431562500000D+02  .419303179946D-08 -.161539699346D+01
     .209920108318D-05  .328283419367D-02  .113639980555D-04  .515372401237D+04
     .273584000000D+06 -.167638063431D-07 -.251719682447D+01 -.242143869400D-07
     .971023497998D+00  .167093750000D+03  .305999906481D+01 -.781068248913D-08
     .470019578202D-09  .100000000000D+01  .157500000000D+04  .000000000000D+00
     .240000000000D+01  .000000000000D+00 -.107102096081D-07  .400000000000D+01
     .271506000000D+06  .400000000000D+01
27 10  3 17  3 59 44.0  .134785193950D-03  .329691829393D-11  .000000000000D+00
     .000000000000D+00  .965625000000D+01  .410767110099D-08  .752137432034D+00
     .391155481339D-06  .216395724565D-01  .122450292110D-04  .515365808868D+04
     .273584000000D+06 -.264495611191D-06 -.257373531082D+01 -.217929482460D-06
     .977869166096D+00  .161500000000D+03 -.144669364190D+01 -.809355141462D-08
     .332513850537D-09  .100000000000D+01  .157500000000D+04  .000000000000D+00
     .240000000000D+01  .000000000000D+00 -.419095158577D-08  .000000000000D+00
     .273486000000D+06  .400000000000D+01
 7 10  3 17  5 59 44.0  .156741589308D-05 -.454747350886D-12  .000000000000D+00
     .500000000000D+01  .361250000000D+02  .415553023737D-08 -.565180111986D+00
     .184215605259D-05  .328344420996D-02  .111572444439D-04  .515372492790D+04
     .280784000000D+06  .260770320892D-07 -.251725294786D+01 -.242143869400D-07
     .971026747139D+00  .169343750000D+03  .305993003263D+01 -.783068332225D-08
     .441446959466D-09  .100000000000D+01  .157500000000D+04  .000000000000D+00
     .240000000000D+01  .000000000000D+00 -.107102096081D-07  .500000000000D+01
     .273606000000D+06  .400000000000D+01
27 10  3 17  5 59 44.0  .134809408337D-03  .329691829393D-11  .000000000000D+00
     .130000000000D+02  .128125000000D+02  .396909390012D-08  .180236653473D+01
     .424683094025D-06  .216392577859D-01  .118520110846D-04  .515365631294D+04
     .280784000000D+06  .365078449249D-06 -.257379186869D+01 -.284984707832D-06
     .977874564264D+00  .154968750000D+03 -.144673490058D+01 -.746709674884D-08
     .366800993019D-09  .100000000000D+01  .157500000000D+04  .000000000000D+00
     .240000000000D+01  .000000000000D+00 -.419095158577D-08  .130000000000D+02
     .273606000000D+06  .400000000000D+01
32 10  3 17  5 59 44.0  .726599246264D-04 -.864019966684D-11  .000000000000D+00
     .310000000000D+02  .116562500000D+02  .499377943953D-08  .242025898493D+00
     .495463609695D-06  .127180153504D-01  .245869159698D-05  .515377473450D+04
     .280784000000D+06 -.167638063431D-07  .175520177936D+01 -.167638063431D-06
     .959636914627D+00  .334156250000D+03 -.100583156074D+01 -.874322133312D-08
     .342871424828D-10  .100000000000D+01  .157500000000D+04  .000000000000D+00
     .240000000000D+01  .000000000000D+00 -.325962901115D-08  .310000000000D+02
     .273606000000D+06  .400000000000D+01
 2 10  3 17  6  0  0.0  .237101688981D-03  .386535248253D-11  .000000000000D+00
     .280000000000D+02  .852812500000D+02  .477448459073D-08  .108044189544D+01
     .449828803539D-05  .943668372929D-02  .103563070297D-04  .515379702377D+04
     .280800000000D+06  .137835741043D-06  .606615695407D+00  .216066837311D-06
     .940479229958D+00  .168187500000D+03  .299133685847D+01 -.817069748520D-08
     .122147945095D-09  .100000000000D+01  .157500000000D+04  .000000000000D+00
     .240000000000D+01  .000000000000D+00 -.172294676304D-07  .280000000000D+02
     .273606000000D+06  .400000000000D+01
 3 10  3 17  6  0  0.0  .529215671122D-03  .511590769747D-11  .000000000000D+00
     .580000000000D+02 -.704375000000D+02  .555344560901D-08  .963120355177D+00
    -.347942113876D-05  .128962951712D-01  .783242285252D-05  .515369822884D+04
     .280800000000D+06 -.163912773132D-06 -.544328308202D+00  .484287738800D-07
     .927214245144D+00  .215000000000D+03  .984475044366D+00 -.874572143726D-08
    -.671099382554D-09  .100000000000D+01  .157500000000D+04  .000000000000D+00
     .340000000000D+01  .000000000000D+00 -.419095158577D-08  .580000000000D+02
     .273606000000D+06  .400000000000D+01
 4 10  3 17  6  0  0.0  .385260209441D-04  .886757334229D-11  .000000000000D+00
     .540000000000D+02  .848750000000D+02  .472841124302D-08 -.216900909097D+01
     .427290797234D-05  .909362954553D-02  .102538615465D-04  .515365922165D+04
     .280800000000D+06  .186264514923D-07  .624568476858D+00 -.782310962677D-07
     .939616525223D+00  .171718750000D+03  .600401669985D+00 -.803604901941D-08
     .305369862738D-09  .100000000000D+01  .157500000000D+04  .000000000000D+00
     .240000000000D+01  .000000000000D+00 -.605359673500D-08  .540000000000D+02
     .273606000000D+06  .400000000000D+01
 5 10  3 17  6  0  0.0 -.349245965481D-05  .125055521494D-11  .000000000000D+00
     .650000000000D+02  .237812500000D+02  .498056460336D-08  .255436968405D+01
     .127032399178D-05  .189360301010D-02  .218302011490D-05  .515366375542D+04
     .280800000000D+06  .000000000000D+00  .166615529152D+01 -.372529029846D-07
     .958822628091D+00  .338000000000D+03  .354290872654D+00 -.856142804641D-08
     .128933942045D-09  .100000000000D+01  .157500000000D+04  .000000000000D+00
     .240000000000D+01  .000000000000D+00 -.884756445885D-08  .650000000000D+02
     .273606000000D+06  .400000000000D+01
 6 10  3 17  6  0  0.0  .687162391841D-03 -.738964445191D-11  .000000000000D+00
     .960000000000D+02 -.730937500000D+02  .519128766654D-08 -.306728038406D+01
    -.364519655704D-05  .610405451152D-02  .822171568871D-05  .515366796112D+04
     .280800000000D+06  .521540641785D-07 -.474315427633D+00  .763684511185D-07
     .934640397673D+00  .204843750000D+03 -.112479993860D+01 -.829855995405D-08
    -.546808491054D-09  .100000000000D+01  .157500000000D+04  .000000000000D+00
     .240000000000D+01  .000000000000D+00 -.465661287308D-08  .960000000000D+02
     .273606000000D+06  .400000000000D+01
 8 10  3 17  6  0  0.0  .415416434407D-05  .227373675443D-12  .000000000000D+00
     .780000000000D+02  .468125000000D+02  .375515641734D-08 -.117471591769D+01
     .216998159885D-05  .109614633257D-01  .106357038021D-04  .515370842743D+04
     .280800000000D+06 -.745058059692D-08 -.245084859465D+01 -.158324837685D-06
     .992315637198D+00  .190718750000D+03  .309120553588D+01 -.759781647955D-08
     .602167939855D-09  .100000000000D+01  .157500000000D+04  .000000000000D+00
     .485000000000D+01  .000000000000D+00 -.419095158577D-08  .780000000000D+02
     .273606000000D+06  .400000000000D+01
 9 10  3 17  6  0  0.0  .111944507807D-03  .216004991671D-11  .000000000000D+00
     .148000000000D+03  .356562500000D+02  .401123851276D-08 -.128787071177D+01
     .214390456676D-05  .207508084131D-01  .119060277939D-04  .515360396576D+04
     .280800000000D+06 -.178813934326D-06 -.254914735031D+01  .491738319397D-06
     .979843369655D+00  .165343750000D+03  .153324844963D+01 -.786997067301D-08
     .419303179946D-09  .100000000000D+01  .157500000000D+04  .000000000000D+00
     .485000000000D+01  .000000000000D+00 -.558793544769D-08  .148000000000D+03
     .273606000000D+06  .400000000000D+01
10 10  3 17  6  0  0.0 -.380165874958D-04 -.909494701773D-12  .000000000000D+00
     .360000000000D+02  .181562500000D+02  .500413701382D-08  .258736871985D+01
     .882893800735D-06  .916702824179D-02  .203028321266D-05  .515346719742D+04
     .280800000000D+06 -.242143869400D-07  .169233624547D+01 -.169500708580D-06
     .953861252607D+00  .339187500000D+03  .661685205730D+00 -.849285376145D-08
     .131791203918D-09  .100000000000D+01  .157500000000D+04  .000000000000D+00
     .240000000000D+01  .000000000000D+00 -.279396772385D-08  .360000000000D+02
     .273606000000D+06  .400000000000D+01
11 10  3 17  6  0  0.0 -.510462559760D-04 -.227373675443D-11  .000000000000D+00
     .108000000000D+03  .478750000000D+02  .590703176587D-08 -.663068271889D+00
     .251829624176D-05  .105161116226D-01  .109411776066D-04  .515373840332D+04
     .280800000000D+06  .763684511185D-07  .391708724195D+00  .208616256714D-06
     .889059251126D+00  .129906250000D+03  .797326301487D+00 -.880429530567D-08
    -.342871424828D-10  .100000000000D+01  .157500000000D+04  .000000000000D+00
     .240000000000D+01  .000000000000D+00 -.116415321827D-07  .108000000000D+03
     .273606000000D+06  .400000000000D+01
12 10  3 17  6  0  0.0 -.137812457979D-03  .454747350886D-11  .000000000000D+00
     .870000000000D+02  .130625000000D+02  .495270630010D-08 -.494831547309D+00
     .713393092155D-06  .350097694900D-02  .395998358727D-05  .515372085190D+04
     .280800000000D+06  .111758708954D-07 -.146356314568D+01 -.782310962677D-07
     .969595515865D+00  .311187500000D+03 -.524801570263D+00 -.837249160502D-08
     .150363406097D-09  .100000000000D+01  .157500000000D+04  .000000000000D+00
     .240000000000D+01  .000000000000D+00 -.121071934700D-07  .870000000000D+02
     .273606000000D+06  .400000000000D+01
